{"spkid": "54076023", "covariance": {"elements": [{"units": null, "value": ".1901179253481387", "title": "eccentricity", "name": "e", "sigma": 1.82037601525204e-06, "label": "e"}, {"label": "q", "sigma": 1.46835707189777e-06, "name": "q", "title": "perihelion distance", "value": ".8471291469479201", "units": "au"}, {"units": "TDB", "value": "2459258.447774388540", "title": "time of perihelion passage", "name": "tp", "sigma": 0.000200373379368739, "label": "tp"}, {"units": "deg", "title": "longitude of the ascending node", "value": "225.5159903374998", "sigma": 6.75576141897374e-05, "name": "om", "label": "node"}, {"value": "283.2505736649331", "title": "argument of perihelion", "units": "deg", "name": "w", "sigma": 7.66256205826679e-05, "label": "peri"}, {"label": "i", "units": "deg", "value": "17.75808938828029", "title": "inclination", "sigma": 0.000123433200765578, "name": "i"}], "data": [["3.313768836904905E-12", "-2.67245211894973E-12", "-3.424345651024465E-10", "-7.940587116162918E-11", "-5.117151178391842E-11", "1.976475058285611E-10"], ["-2.67245211894973E-12", "2.156072490592197E-12", "2.748188662031003E-10", "6.34872911067855E-11", "4.08141704276883E-11", "-1.590907328528098E-10"], ["-3.424345651024465E-10", "2.748188662031003E-10", "4.014949115964845E-8", "7.865226952157838E-9", "9.047320899401976E-9", "-1.919353652727898E-8"], ["-7.940587116162918E-11", "6.34872911067855E-11", "7.865226952157838E-9", "4.564031235009414E-9", "-1.361703275906182E-9", "-7.249998227338547E-9"], ["-5.117151178391842E-11", "4.08141704276883E-11", "9.047320899401976E-9", "-1.361703275906182E-9", "5.871485729678973E-9", "-2.415579180673277E-11"], ["1.976475058285611E-10", "-1.590907328528098E-10", "-1.919353652727898E-8", "-7.249998227338547E-9", "-2.415579180673277E-11", "1.523575505123553E-8"]], "labels": ["e", "q", "tp", "node", "peri", "i"], "epoch": "2459229.5"}, "elements": [{"label": "e", "title": "eccentricity", "value": ".1901939036620767", "units": null, "name": "e", "sigma": "1.816E-6"}, {"label": "a", "value": "1.046352780675119", "title": "semi-major axis", "units": "au", "name": "a", "sigma": "5.2992E-7"}, {"label": "q", "sigma": "1.4722E-6", "name": "q", "units": "au", "title": "perihelion distance", "value": ".8473428607108493"}, {"sigma": ".00012355", "name": "i", "units": "deg", "title": "inclination; angle with respect to x-y ecliptic plane", "value": "17.75361197624149", "label": "i"}, {"label": "node", "title": "longitude of the ascending node", "value": "225.47581820206", "units": "deg", "sigma": "6.7092E-5", "name": "om"}, {"sigma": "7.6588E-5", "name": "w", "title": "argument of perihelion", "value": "283.3372813170191", "units": "deg", "label": "peri"}, {"title": "mean anomaly", "value": "348.5266593032448", "units": "deg", "name": "ma", "sigma": ".0011925", "label": "M"}, {"label": "tp", "value": "2461212.959568878201", "title": "time of perihelion passage", "units": "TDB", "sigma": ".0013045", "name": "tp"}, {"label": "period", "sigma": ".00029699", "name": "per", "units": "d", "title": "sidereal orbital period", "value": "390.9449666583099"}, {"units": "deg/d", "title": "mean motion", "value": ".9208457217832501", "name": "n", "sigma": "6.9953E-7", "label": "n"}, {"title": "aphelion distance", "value": "1.245362700639389", "units": "au", "sigma": "6.307E-7", "name": "ad", "label": "Q"}], "epoch": "2461200.5"}